TDRS 3                  
1 19548U 88091B   20272.40479354 -.00000311  00000-0  00000-0 0  9998
2 19548  14.1216 356.5038 0034445 318.6950 149.2734  1.00278224104434
FLTSATCOM 8 (USA 46)    
1 20253U 89077A   20272.01419906 -.00000092  00000-0  00000-0 0  9998
2 20253  13.0129   4.7096 0002750 143.9542 295.6105  1.00272141239671
SKYNET 4C               
1 20776U 90079A   20271.00388470  .00000112  00000-0  00000+0 0  9992
2 20776  13.9514   5.0431 0003311 193.8538 202.2626  1.00279705109994
TDRS 5                  
1 21639U 91054B   20272.49461911  .00000073  00000-0  00000+0 0  9997
2 21639  14.3162   9.8012 0023499  17.3989 350.9002  1.00272149106770
TDRS 6                  
1 22314U 93003B   20272.41253668 -.00000306  00000-0  00000-0 0  9995
2 22314  14.0580  12.9559 0006674  92.4700   4.8258  1.00277461101498
UFO 2 (USA 95)          
1 22787U 93056A   20272.07814545  .00000113  00000-0  00000-0 0  9991
2 22787  11.3098  14.7184 0008998 224.6403 184.8349  1.00273490 97728
USA 99 (MILSTAR-1 1)    
1 22988U 94009A   20272.35743782 -.00000204  00000-0  00000-0 0  9990
2 22988  14.3188  49.8982 0001852 130.9124 225.5177  1.00271341 12025
ASTRA 1D                
1 23331U 94070A   20272.33356554 -.00000283  00000-0  00000+0 0  9992
2 23331   9.2454  41.5722 0003152 154.6433 218.4092  1.00280836 95239
USA 107 (DSP 17)        
1 23435U 94084A   20272.42086969 -.00000178  00000-0  00000-0 0  9996
2 23435  14.5668  11.0039 0002297 114.8163 296.9525  1.00273029 10763
UFO 4 (USA 108)         
1 23467U 95003A   20272.56727185 -.00000035  00000-0  00000-0 0  9992
2 23467   9.8671  20.4203 0004526 115.0027 248.8797  1.00274977 94037
AMSC 1                  
1 23553U 95019A   20272.38660510 -.00000110  00000-0  00000-0 0  9997
2 23553  11.3609  30.4535 0001964  75.0447 294.7607  1.00272098 93249
TDRS 7                  
1 23613U 95035B   20272.50928906 -.00000211  00000-0  00000-0 0  9994
2 23613  14.1750   3.6407 0026318  37.4242 234.7123  1.00268202 92315
USA 113                 
1 23628U 95038A   20272.29701373 -.00000351  00000-0  00000-0 0  9991
2 23628  11.5290  29.3079 0001932 156.8984  31.8904  1.00277987 12039
USA 115 (MILSTAR-1 2)   
1 23712U 95060A   20272.09905063 -.00000030  00000-0  00000+0 0  9993
2 23712  13.2591  19.0981 0002593 166.6315  97.2721  1.00271392 10704
INMARSAT 3-F1           
1 23839U 96020A   20272.51569749  .00000100  00000-0  00000-0 0  9992
2 23839   6.2731  61.7461 0005970 114.0664 236.8922  0.99987053 89676
ASTRA 1F                
1 23842U 96021A   20272.58937947  .00000118  00000-0  00000-0 0  9992
2 23842   0.0945  78.2941 0004513 117.0549  68.9437  1.00274919 31408
MSAT M1                 
1 23846U 96022A   20272.46280804 -.00000101  00000-0  00000+0 0  9999
2 23846   9.4239  40.9224 0003420 114.1729 271.7329  1.00272705 89504
INMARSAT 3-F2           
1 24307U 96053A   20272.51183122 -.00000280  00000-0  00000-0 0  9996
2 24307   5.1245  71.2474 0004688  81.8491 139.9384  0.99983163 88075
AMC-1 (GE-1)            
1 24315U 96054A   20272.52302811  .00000048  00000-0  00000-0 0  9996
2 24315   4.1646  77.9897 0003171 101.7131 245.4463  1.00272776 25389
INMARSAT 3-F3           
1 24674U 96070A   20272.57087851  .00000019  00000-0  00000-0 0  9999
2 24674   5.8125  65.6194 0005232 125.4724 200.3645  1.00274356 87029
AMC-2 (GE-2)            
1 24713U 97002A   20272.41831285 -.00000229  00000-0  00000-0 0  9994
2 24713   6.5666  59.8012 0005086 124.8874 248.7105  1.00273669 86652
INTELSAT 26 (IS-26)     
1 24732U 97007A   20272.44702414 -.00000009  00000-0  00000-0 0  9990
2 24732   9.1829  42.3615 0002352 143.3680  46.5343  1.00270947 51806
USA 130 (DSP 18)        
1 24737U 97008A   20272.15245465  .00000020  00000-0  00000-0 0  9994
2 24737  13.6189  18.9041 0000676 272.1625 139.4718  1.00282929 10670
GALAXY 25 (G-25)        
1 24812U 97026A   20272.49822243  .00000135  00000-0  00000-0 0  9997
2 24812   2.1619  89.5201 0003744 138.8421 351.6047  1.00272206 85445
INTELSAT 5 (IS-5)       
1 24916U 97046A   20272.51774950  .00000074  00000-0  00000-0 0  9990
2 24916   5.9160  64.9624 0003139 127.2504 224.9385  1.00271233 84681
AMC-3 (GE-3)            
1 24936U 97050A   20272.41641878 -.00000279  00000-0  00000-0 0  9996
2 24936   3.0393  84.8958 0003358 115.9625 244.7078  1.00271628 31490
NSS-5                   
1 24957U 97053A   20272.50179910  .00000089  00000-0  00000-0 0  9993
2 24957   6.1707  63.1842 0003437 113.5419  62.1492  1.00271766 84236
USA 134                 
1 25019U 97065A   20272.45372819 -.00000075  00000-0  00000-0 0  9999
2 25019  10.3366  35.4036 0002190 293.4794  90.3419  1.00273774 12021
ASTRA 1G                
1 25071U 97076A   20272.50432894  .00000001  00000-0  00000-0 0  9993
2 25071   4.8392  72.5752 0003929 110.7471  69.1954  1.00271929 83629
INMARSAT 3-F5           
1 25153U 98006B   20272.33731670 -.00000306  00000-0  00000-0 0  9992
2 25153   5.0286  69.6711 0005059 122.6684 242.6966  1.00272014 82953
UFO 8 (USA 138)         
1 25258U 98016A   20272.56703441 -.00000035  00000-0  00000-0 0  9998
2 25258   8.7715  32.3546 0003380 146.9239 204.5044  1.00277997 82633
ASTRA 2A                
1 25462U 98050A   20272.49726285  .00000129  00000-0  00000-0 0  9999
2 25462   1.8665  92.0757 0002441  88.4157  34.2152  1.00273350 25433
JCSAT-4A                
1 25630U 99006A   20272.58313270 -.00000326  00000-0  00000+0 0  9993
2 25630   4.8223  73.3228 0007587 172.2213 108.1975  1.00268425 79068
SKYNET 4E               
1 25639U 99009B   20272.26878694 -.00000046  00000-0  00000+0 0  9995
2 25639  10.9295  20.4205 0002883 165.0939 277.5307  1.00272231 79083
ASIASAT 3S              
1 25657U 99013A   20272.64113550 -.00000242  00000-0  00000-0 0  9994
2 25657   5.0105  71.7939 0002489  81.2399 233.1508  1.00270508 78885
NIMIQ 1                 
1 25740U 99027A   20272.47440288 -.00000218  00000-0  00000-0 0  9997
2 25740   1.3367  93.2389 0005780  97.7130 261.0209  1.00271330 78115
ABS-7                   
1 25894U 99046A   20272.60118892 -.00000382  00000-0  00000-0 0  9998
2 25894   1.2154  93.9139 0003361  97.0801 149.3880  1.00272691 76199
ABS-6                   
1 25924U 99053A   20272.61732049 -.00000140  00000-0  00000-0 0  9999
2 25924   0.0311  71.1328 0000903 102.5787 215.3791  1.00272480 76930
TELSTAR 12 (ORION 2)    
1 25949U 99059A   20272.53787492 -.00000081  00000-0  00000-0 0  9999
2 25949   3.5465  82.9677 0004551 105.1750 264.0671  1.00272835 76600
AMC-4 (GE-4)            
1 25954U 99060A   20272.51975437  .00000067  00000-0  00000-0 0  9996
2 25954   0.0354 274.5802 0002767 264.0757 241.3099  1.00272715 22614
UFO 10 (USA 146)        
1 25967U 99063A   20272.20000747 -.00000198  00000-0  00000-0 0  9998
2 25967   7.9789  35.3225 0003605 110.1226 271.4952  1.00274860 76403
GALAXY 11 (G-11)        
1 26038U 99071A   20272.35743782 -.00000182  00000-0  00000-0 0  9999
2 26038   1.4652  95.3908 0000314 116.4986 191.2997  1.00271856 76142
USA 148                 
1 26052U 00001A   20272.57320186  .00000028  00000-0  00000-0 0  9991
2 26052   8.5670  46.0219 0001838  77.8699 270.6336  1.00276551 12020
ASIASTAR                
1 26107U 00016A   20272.51261634 -.00000351  00000-0  00000-0 0  9994
2 26107   4.2406  76.4614 0004195 108.4757 112.3780  1.00272916 74992
USA 149 (DSP 20)        
1 26356U 00024A   20272.58394162  .00000085  00000-0  00000-0 0  9992
2 26356  11.6210  25.7001 0001354 250.7192 135.8027  1.00276803 11981
EUTELSAT 80A            
1 26369U 00028A   20272.58937947  .00000103  00000-0  00000-0 0  9995
2 26369   3.6238  80.3995 0004636 103.3447  84.5049  1.00272007 74500
TDRS 8                  
1 26388U 00034A   20272.38521689 -.00000247  00000-0  00000-0 0  9993
2 26388   9.3881  46.8181 0012912 325.8885 222.9464  1.00272171 74236
INTELSAT 9 (IS-9)       
1 26451U 00043A   20272.35604951 -.00000303  00000-0  00000-0 0  9998
2 26451   5.9050  65.1644 0002286 125.2656 255.3454  1.00270637 23212
BRASILSAT B4            
1 26469U 00046A   20272.47504590 -.00000189  00000-0  00000+0 0  9992
2 26469   4.2120  77.7138 0002792 105.8912 263.1596  1.00272735 73703
ASTRA 2B                
1 26494U 00054A   20272.20846934  .00000100  00000-0  00000-0 0  9994
2 26494   4.7389  73.1926 0005053 123.3675 265.5540  1.00274750 25950
NSS-11 (AAP-1)          
1 26554U 00059A   20272.62201793  .00000004  00000-0  00000-0 0  9993
2 26554   0.0280  82.8348 0003279 102.4619 222.4873  1.00271273 20363
USA 153                 
1 26575U 00065A   20272.44812213 -.00000340  00000-0  00000-0 0  9992
2 26575   8.0609  49.3023 0000270 181.6466  72.3914  1.00263012 11993
AMC-6 (GE-6)            
1 26580U 00067A   20272.51682007  .00000083  00000-0  00000+0 0  9996
2 26580   0.0408  81.9378 0002656 120.8521 212.0148  1.00271385 73059
INTELSAT 12 (IS-12)     
1 26590U 00068A   20272.56021722 -.00000006  00000-0  00000-0 0  9991
2 26590   3.1687  85.3053 0003737 119.9122  68.5043  1.00273024 30781
INTELSAT 1R (IS-1R)     
1 26608U 00072A   20272.52299740 -.00000156  00000-0  00000-0 0  9995
2 26608   2.9406  85.8218 0001017   8.4494 258.8890  1.00271709 20385
ANIK F1                 
1 26624U 00076A   20272.53868781 -.00000095  00000-0  00000-0 0  9997
2 26624   0.0103 182.9508 0003607 350.5738 280.8833  1.00271450 22204
ASTRA 2D                
1 26638U 00081A   20272.50310764  .00000046  00000-0  00000-0 0  9993
2 26638   5.9957  64.1150 0002014 120.1228  61.8864  1.00275083 31971
AMC-8 (GE-8)            
1 26639U 00081B   20272.51975510  .00000068  00000-0  00000-0 0  9995
2 26639   0.9011  94.7779 0002765 102.3456 222.7476  1.00272013 72390
USA 157 (MILSTAR-2 2)   
1 26715U 01009A   20272.36511705 -.00000322  00000-0  00000-0 0  9990
2 26715   9.4231  30.0410 0002358 132.1099 114.6490  1.00270518 12016
